NORAD_CAT_ID,OBJECT_NAME,OBJECT_TYPE,EPOCH,MEAN_MOTION,ECCENTRICITY,INCLINATION,RA_OF_ASC_NODE,ARG_OF_PERICENTER,MEAN_ANOMALY,BSTAR,MEAN_MOTION_DOT,MEAN_MOTION_DDOT,TLE_LINE0,TLE_LINE1,TLE_LINE2,SEMIMAJOR_AXIS,PERIOD,APOGEE,PERIGEE,DECAYED
51997.0,STARLINK-3589,PAYLOAD,2023-01-03 13:12:13,15.08831073,0.0001955999999999,53.2161,191.6773,64.3849,295.7345,1.3548e-05,-7.3e-07,0.0,0 STARLINK-3589,1 51997U 22025AT  23003.55015438 -.00000073  00000-0  13548-4 0  9997,2 51997  53.2161 191.6773 0001956  64.3849 295.7345 15.08831073 45617,6917.908,95.438,541.126,538.42,0.0
51997.0,STARLINK-3589,PAYLOAD,2023-01-03 19:33:46,15.08823725,0.0001965,53.2163,190.4876,54.787,305.3306,-5.1222e-05,-1.103e-05,0.0,0 STARLINK-3589,1 51997U 22025AT  23003.81512251 -.00001103  00000-0 -51222-4 0  9998,2 51997  53.2163 190.4876 0001965  54.7870 305.3306 15.08823725 47170,6917.93,95.439,541.155,538.436,0.0
51997.0,STARLINK-3589,PAYLOAD,2023-01-04 11:27:37,15.08829565,0.0001895,53.2171,187.5141,55.6061,304.511,-1.1217e-05,-4.67e-06,0.0,0 STARLINK-3589,1 51997U 22025AT  23004.47752265 -.00000467  00000-0 -11217-4 0  9994,2 51997  53.2171 187.5141 0001895  55.6061 304.5110 15.08829565 47278,6917.9119999999975,95.438,541.0880000000002,538.466,0.0
51997.0,STARLINK-3589,PAYLOAD,2023-01-04 16:13:47,15.08832104,0.0001873,53.2195,186.6237,58.3815,301.736,-2.748e-05,-7.25e-06,0.0,0 STARLINK-3589,1 51997U 22025AT  23004.67624255 -.00000725  00000-0 -27480-4 0  9999,2 51997  53.2195 186.6237 0001873  58.3815 301.7360 15.08832104 45786,6917.905,95.438,541.065,538.474,0.0
51997.0,STARLINK-3589,PAYLOAD,2023-01-05 06:32:15,15.08844863,0.0001776,53.2169,183.9462,48.5646,311.5498,-6.315e-05,-1.293e-05,0.0,0 STARLINK-3589,1 51997U 22025AT  23005.27239685 -.00001293  00000-0 -63150-4 0  9990,2 51997  53.2169 183.9462 0001776  48.5646 311.5498 15.08844863 47397,6917.866,95.437,540.9590000000002,538.502,0.0
51997.0,STARLINK-3589,PAYLOAD,2023-01-05 14:29:11,15.08832858,0.0001849,53.216,182.458,50.18600000000001,309.9295,0.00019993,2.895e-05,0.0,0 STARLINK-3589,1 51997U 22025AT  23005.60360138  .00002895  00000-0  19993-3 0  9997,2 51997  53.2160 182.4580 0001849  50.1860 309.9295 15.08832858 45925,6917.901999999999,95.438,541.0459999999998,538.488,0.0
51997.0,STARLINK-3589,PAYLOAD,2023-01-06 11:09:11,15.08850198,0.0001886,53.2149,178.592,51.298,308.8181,0.00029232,4.369e-05,0.0,0 STARLINK-3589,1 51997U 22025AT  23006.46471680  .00004369  00000-0  29232-3 0  9992,2 51997  53.2149 178.5920 0001886  51.2980 308.8181 15.08850198 47574,6917.849,95.437,541.019,538.41,0.0
51997.0,STARLINK-3589,PAYLOAD,2023-01-06 14:19:57,15.08853963,0.0001898,53.2148,177.9974,51.2866,308.8295,0.00033879,5.11e-05,0.0,0 STARLINK-3589,1 51997U 22025AT  23006.59719431  .00005110  00000-0  33879-3 0  9992,2 51997  53.2148 177.9974 0001898  51.2866 308.8295 15.08853963 46074,6917.838000000002,95.437,541.016,538.39,0.0
51997.0,STARLINK-3589,PAYLOAD,2023-01-07 04:38:25,15.08862434,0.0001952,53.2145,175.3211,51.3972,308.7195,0.00037462,5.683e-05,0.0,0 STARLINK-3589,1 51997U 22025AT  23007.19334685  .00005683  00000-0  37462-3 0  9990,2 51997  53.2145 175.3211 0001952  51.3972 308.7195 15.08862434 46168,6917.812,95.436,541.0269999999998,538.326,0.0
51997.0,STARLINK-3589,PAYLOAD,2023-01-07 17:21:30,15.08847718,0.0001845,53.2144,172.9415,50.3207,309.7948,-4.3806e-05,-9.85e-06,0.0,0 STARLINK-3589,1 51997U 22025AT  23007.72326680 -.00000985  00000-0 -43806-4 0  9997,2 51997  53.2144 172.9415 0001845  50.3207 309.7948 15.08847718 47769,6917.857,95.437,540.998,538.445,0.0
51997.0,STARLINK-3589,PAYLOAD,2023-01-08 12:26:07,15.08856543,0.0001931,53.2146,169.3738,50.0874,310.0288,0.00016658,2.365e-05,0.0,0 STARLINK-3589,1 51997U 22025AT  23008.51814008  .00002365  00000-0  16658-3 0  9997,2 51997  53.2146 169.3738 0001931  50.0874 310.0288 15.08856543 46365,6917.83,95.437,541.031,538.359,0.0
51997.0,STARLINK-3589,PAYLOAD,2023-01-08 20:23:02,15.0885161,0.0001957,53.2149,167.8873,49.293,310.8232,9.9538e-05,1.297e-05,0.0,0 STARLINK-3589,1 51997U 22025AT  23008.84934009  .00001297  00000-0  99538-4 0  9999,2 51997  53.2149 167.8873 0001957  49.2930 310.8232 15.08851610 46415,6917.845,95.437,541.064,538.356,0.0
51997.0,STARLINK-3589,PAYLOAD,2023-01-09 10:41:31,15.08840752,0.0001928,53.2158,165.2116,46.5996,313.5156,-1.9369e-05,-5.96e-06,0.0,0 STARLINK-3589,1 51997U 22025AT  23009.44550174 -.00000596  00000-0 -19369-4 0  9990,2 51997  53.2158 165.2116 0001928  46.5996 313.5156 15.08840752 48026,6917.8780000000015,95.438,541.077,538.409,0.0
51997.0,STARLINK-3589,PAYLOAD,2023-01-09 20:13:50,15.08840947,0.0001963,53.2156,163.4269,47.8733,312.2426,2.6431e-05,1.32e-06,0.0,0 STARLINK-3589,1 51997U 22025AT  23009.84294184  .00000132  00000-0  26431-4 0  9992,2 51997  53.2156 163.4269 0001963  47.8733 312.2426 15.08840947 46564,6917.877,95.437,541.1,538.385,0.0
51997.0,STARLINK-3589,PAYLOAD,2023-01-10 12:07:41,15.08845129,0.0002017,53.2157,160.4546,50.9778,309.1393,-0.00011036,-2.044e-05,0.0,0 STARLINK-3589,1 51997U 22025AT  23010.50534313 -.00002044  00000-0 -11036-3 0  9998,2 51997  53.2157 160.4546 0002017  50.9778 309.1393 15.08845129 46661,6917.865,95.437,541.125,538.3340000000002,0.0
51997.0,STARLINK-3589,PAYLOAD,2023-01-10 16:53:50,15.08844842,0.0001986,53.2162,159.562,45.3477,314.7676,3.1942e-05,2.2e-06,0.0,0 STARLINK-3589,1 51997U 22025AT  23010.70405961  .00000220  00000-0  31942-4 0  9997,2 51997  53.2162 159.5620 0001986  45.3477 314.7676 15.08844842 48217,6917.866,95.437,541.104,538.357,0.0
51997.0,STARLINK-3589,PAYLOAD,2023-01-11 13:33:51,15.08846014,0.0002327,53.216,155.696,36.1027,324.0122,0.00011288,1.509e-05,0.0,0 STARLINK-3589,1 51997U 22025AT  23011.56517680  .00001509  00000-0  11288-3 0  9995,2 51997  53.2160 155.6960 0002327  36.1027 324.0122 15.08846014 46826,6917.861999999999,95.437,541.337,538.117,0.0
51997.0,STARLINK-3589,PAYLOAD,2023-01-11 18:20:00,15.08848233,0.0002086,53.2147,154.8052,41.8754,318.2398,0.00020277,2.941e-05,0.0,0 STARLINK-3589,1 51997U 22025AT  23011.76389425  .00002941  00000-0  20277-3 0  9990,2 51997  53.2147 154.8052 0002086  41.8754 318.2398 15.08848233 48373,6917.855,95.437,541.163,538.2769999999998,0.0
51997.0,STARLINK-3589,PAYLOAD,2023-01-12 02:16:56,15.08836875,0.0002067,53.2153,153.3177,48.8853,311.2318,-6.0318e-05,-1.248e-05,0.0,0 STARLINK-3589,1 51997U 22025AT  23012.09509884 -.00001248  00000-0 -60318-4 0  9992,2 51997  53.2153 153.3177 0002067  48.8853 311.2318 15.08836875 48428,6917.89,95.438,541.185,538.325,0.0
51997.0,STARLINK-3589,PAYLOAD,2023-01-12 18:10:47,15.08846187,0.0002129,53.215,150.3434,43.3912,316.7248,0.00011378,1.523e-05,0.0,0 STARLINK-3589,1 51997U 22025AT  23012.75749508  .00001523  00000-0  11378-3 0  9999,2 51997  53.2150 150.3434 0002129  43.3912 316.7248 15.08846187 48523,6917.861,95.437,541.1990000000002,538.254,0.0
51997.0,STARLINK-3589,PAYLOAD,2023-01-13 02:07:43,15.08830196,0.0001788,53.2146,148.8582,44.5936,315.5199,-0.00012101,-2.213e-05,0.0,0 STARLINK-3589,1 51997U 22025AT  23013.08870368 -.00002213  00000-0 -12101-3 0  9999,2 51997  53.2146 148.8582 0001788  44.5936 315.5199 15.08830196 48573,6917.91,95.438,541.012,538.538,0.0
51997.0,STARLINK-3589,PAYLOAD,2023-01-13 14:50:49,15.08824748,0.0001862,53.2153,146.47799999999998,48.1246,311.9904,-0.00011967,-2.191e-05,0.0,0 STARLINK-3589,1 51997U 22025AT  23013.61863238 -.00002191  00000-0 -11967-3 0  9990,2 51997  53.2153 146.4780 0001862  48.1246 311.9904 15.08824748 47133,6917.927,95.439,541.08,538.504,0.0
51997.0,STARLINK-3589,PAYLOAD,2023-01-13 18:01:36,15.08829296,0.0001899,53.2152,145.8826,50.3203,309.7956,-2.5704e-05,-6.97e-06,0.0,0 STARLINK-3589,1 51997U 22025AT  23013.75111181 -.00000697  00000-0 -25704-4 0  9992,2 51997  53.2152 145.8826 0001899  50.3203 309.7956 15.08829296 47151,6917.9130000000005,95.438,541.092,538.464,0.0
51997.0,STARLINK-3589,PAYLOAD,2023-01-14 08:20:04,15.08831528,0.0001935,53.2151,143.2071,49.775,310.3411,0.00023681,3.482e-05,0.0,0 STARLINK-3589,1 51997U 22025AT  23014.34727810  .00003482  00000-0  23681-3 0  9994,2 51997  53.2151 143.2071 0001935  49.7750 310.3411 15.08831528 48767,6917.906,95.438,541.11,538.433,0.0
51997.0,STARLINK-3589,PAYLOAD,2023-01-15 12:57:01,15.08844544,0.0001619,53.2149,137.8544,65.1141,295.0019,0.00053597,8.253e-05,0.0,0 STARLINK-3589,1 51997U 22025AT  23015.53960229  .00008253  00000-0  53597-3 0  9999,2 51997  53.2149 137.8544 0001619  65.1141 295.0019 15.08844544 47420,6917.866,95.437,540.852,538.611,0.0
51997.0,STARLINK-3589,PAYLOAD,2023-01-15 17:43:10,15.08859792,0.0001683,53.215,136.9621,61.8009,298.3153,0.0024146999999999,0.00038373,0.0,0 STARLINK-3589,1 51997U 22025AT  23015.73832160  .00038373  00000-0  24147-2 0  9997,2 51997  53.2150 136.9621 0001683  61.8009 298.3153 15.08859792 48972,6917.82,95.436,540.849,538.521,0.0
51997.0,STARLINK-3589,PAYLOAD,2023-01-16 11:12:25,15.08852729,0.000137,53.2141,133.691,55.5967,304.5155,0.0013011,0.00020487,0.0,0 STARLINK-3589,1 51997U 22025AT  23016.46696250  .00020487  00000-0  13011-2 0  9991,2 51997  53.2141 133.6910 0001370  55.5967 304.5155 15.08852729 49081,6917.840999999999,95.437,540.654,538.759,0.0
51997.0,STARLINK-3589,PAYLOAD,2023-01-16 14:23:11,15.08857832,0.000153,53.2146,133.0967,67.4032,292.7122,0.001324,0.00020857,0.0,0 STARLINK-3589,1 51997U 22025AT  23016.59944142  .00020857  00000-0  13240-2 0  9996,2 51997  53.2146 133.0967 0001530  67.4032 292.7122 15.08857832 47580,6917.826,95.436,540.749,538.632,0.0
51997.0,STARLINK-3589,PAYLOAD,2023-01-17 07:52:27,15.08831859,0.000134,53.2149,129.8236,88.2386,271.876,0.00073376,0.00011407,0.0,0 STARLINK-3589,1 51997U 22025AT  23017.32809210  .00011407  00000-0  73376-3 0  9992,2 51997  53.2149 129.8236 0001340  88.2386 271.8760 15.08831859 49216,6917.905,95.438,540.697,538.8430000000001,0.0
